{"_default": { "38": {"norad_id": "15427", "name": "NOAA 9", "tle1": "1 15427U 84123A   26165.53190294  .00000081  00000-0  63412-4 0  9999", "tle2": "2 15427  99.0989 192.1082 0014602   1.8792 118.5177 14.17067613143046", "object_type": "PAYLOAD", "criticality_score": 8.5, "last_updated": "2026-06-14T17:46:05.057534+00:00", "maneuver_count": 0, "owner": "N/A"}, "39": {"norad_id": "14781", "name": "OSCAR 11 (UOSAT 2)", "tle1": "1 14781U 84021B   26165.46944029  .00001127  00000-0  12034-3 0  9998", "tle2": "2 14781  97.8056 131.0745 0007378 181.6912 178.4282 14.90777278256728", "object_type": "PAYLOAD", "criticality_score": 7.0, "last_updated": "2026-06-14T17:46:05.057534+00:00", "maneuver_count": 0, "owner": "N/A"}, "40": {"norad_id": "7530", "name": "OSCAR 7", "tle1": "1  7530U 74089B   26165.25919905 -.00000031  00000-0  98943-4 0  9995", "tle2": "2  7530 101.9901 178.4753 0012540 135.5580 235.9820 12.53698067360153", "object_type": "PAYLOAD", "criticality_score": 7.0, "last_updated": "2026-06-14T17:46:05.057534+00:00", "maneuver_count": 0, "owner": "N/A"}, "101": {"norad_id": "20442", "name": "OSCAR 19 (LUSAT)", "tle1": "1 20442U 90005G   26164.97260120  .00000110  00000-0  56016-4 0  9996", "tle2": "2 20442  98.8851 186.6896 0010942 210.9813 149.0727 14.34122315901935", "object_type": "PAYLOAD", "criticality_score": 7.0, "last_updated": "2026-06-14T17:46:05.057534+00:00", "maneuver_count": 0, "owner": "N/A"}, "129": {"norad_id": "965", "name": "OPS 6582 (TRANSIT 5B-5)", "tle1": "1   965U 64083D   26165.52460801  .00000076  00000-0  93637-4 0  9992", "tle2": "2   965  90.0763 203.0188 0039519 286.4755 192.2532 13.57012675 43258", "object_type": "PAYLOAD", "criticality_score": 7.0, "last_updated": "2026-06-14T17:46:05.057534+00:00", "maneuver_count": 0, "owner": "N/A"}, "153": {"norad_id": "14129", "name": "OSCAR 10", "tle1": "1 14129U 83058B   26165.45605943  .00000123  00000-0  00000+0 0  9992", "tle2": "2 14129  25.9101 220.0173 6011773 114.9164 317.3873  2.05868899295433", "object_type": "PAYLOAD", "criticality_score": 7.0, "last_updated": "2026-06-14T17:46:05.057534+00:00", "maneuver_count": 0, "owner": "N/A"}, "169": {"norad_id": "1002", "name": "LES 1", "tle1": "1  1002U 65008C   26165.40602838 -.00000001  00000-0 -12038-2 0  9992", "tle2": "2  1002  32.1462  51.2923 0015589 260.3201  99.5535  9.88354881215915", "object_type": "PAYLOAD", "criticality_score": 7.0, "last_updated": "2026-06-14T17:46:05.057534+00:00", "maneuver_count": 0, "owner": "N/A"}, "170": {"norad_id": "1291", "name": "SOLRAD 7B", "tle1": "1  1291U 65016D   26165.45835360  .00000004  00000-0  41747-4 0  9996", "tle2": "2  1291  70.0789 242.0649 0018966 129.2650 231.0142 13.94975363116324", "object_type": "PAYLOAD", "criticality_score": 7.0, "last_updated": "2026-06-14T17:46:05.057534+00:00", "maneuver_count": 0, "owner": "N/A"}, "171": {"norad_id": "1804", "name": "ALOUETTE 2", "tle1": "1  1804U 65098A   26165.55752507  .00000451  00000-0  14965-3 0  9995", "tle2": "2  1804  79.8011 278.8916 1329739 237.8654 108.6620 12.28341584678957", "object_type": "PAYLOAD", "criticality_score": 7.0, "last_updated": "2026-06-14T17:46:05.057534+00:00", "maneuver_count": 0, "owner": "N/A"}, "172": {"norad_id": "2389", "name": "OV3-3", "tle1": "1  2389U 66070A   26165.46093709  .00017915  00000-0  79962-3 0  9998", "tle2": "2  2389  81.3245 333.4169 1012342 164.7377 198.6880 13.45298840598606", "object_type": "PAYLOAD", "criticality_score": 7.0, "last_updated": "2026-06-14T17:46:05.057534+00:00", "maneuver_count": 0, "owner": "N/A"}, "173": {"norad_id": "2412", "name": "ERS 15", "tle1": "1 02412U 66077C   26150.28389959  .00000002  00000-0  00000-0 0  9994", "tle2": "2 02412  90.3351 277.0217 0007312  86.0359 274.1328  8.59079282388929", "object_type": "PAYLOAD", "criticality_score": 7.0, "last_updated": "2026-06-14T17:46:05.057534+00:00", "maneuver_count": 0, "owner": "N/A"}, "174": {"norad_id": "3669", "name": "ISIS 1", "tle1": "1 03669U 69009A   26165.18216325  .00000035  00000-0  25981-4 0  9993", "tle2": "2 03669  88.4427 144.7299 1706138 254.2982  86.4086 11.30433539359431", "object_type": "PAYLOAD", "criticality_score": 7.0, "last_updated": "2026-06-14T17:46:05.057534+00:00", "maneuver_count": 0, "owner": "N/A"}, "175": {"norad_id": "4237", "name": "OPS 7613 (P/L 4)", "tle1": "1  4237U 69082E   26165.23867000  .00000019  00000-0  52181-4 0  9998", "tle2": "2  4237  70.0143 110.1895 0018685 139.8132 324.7015 13.95996098885892", "object_type": "PAYLOAD", "criticality_score": 7.0, "last_updated": "2026-06-14T17:46:05.057534+00:00", "maneuver_count": 0, "owner": "N/A"}, "176": {"norad_id": "4256", "name": "OPS 7613 (P/L 1)", "tle1": "1  4256U 69082B   26165.51989977  .00000048  00000-0  69489-4 0  9999", "tle2": "2  4256  70.0102 330.7445 0017244  65.8401 294.4507 13.99196759890093", "object_type": "PAYLOAD", "criticality_score": 7.0, "last_updated": "2026-06-14T17:46:05.057534+00:00", "maneuver_count": 0, "owner": "N/A"}, "177": {"norad_id": "5485", "name": "SHINSEI (MS-F2)", "tle1": "1 05485U 71080A   26165.19128833  .00000041  00000-0  54261-4 0  9990", "tle2": "2 05485  32.0526 116.0918 0639542  19.2680 343.0977 12.74252211548875", "object_type": "PAYLOAD", "criticality_score": 7.0, "last_updated": "2026-06-14T17:46:05.057534+00:00", "maneuver_count": 0, "owner": "N/A"}, "178": {"norad_id": "5680", "name": "OPS 7898 (P/L 2)", "tle1": "1 05680U 71110C   26164.96893778  .00000002  00000-0  55058-4 0  9994", "tle2": "2 05680  69.9904   9.5621 0008001 191.8277 168.2631 13.74758596347775", "object_type": "PAYLOAD", "criticality_score": 7.0, "last_updated": "2026-06-14T17:46:05.057534+00:00", "maneuver_count": 0, "owner": "N/A"}, "179": {"norad_id": "18351", "name": "EUTE 1-F4 (ECS 4)", "tle1": "1 18351U 87078B   26165.32572410 -.00000232  00000-0  00000+0 0  9999", "tle2": "2 18351  13.8306 342.1477 0011041  44.2411 321.0655  0.98690681126730", "object_type": "PAYLOAD", "criticality_score": 7.0, "last_updated": "2026-06-14T17:46:05.057534+00:00", "maneuver_count": 0, "owner": "N/A"}, "202": {"norad_id": "5580", "name": "PROSPERO (BLACK ARROW)", "tle1": "1  5580U 71093A   26165.44319784  .00000946  00000-0  20119-3 0  9993", "tle2": "2  5580  82.0386 293.2377 0500301 234.9244 120.4043 14.01602942748144", "object_type": "PAYLOAD", "criticality_score": 7.0, "last_updated": "2026-06-14T17:46:05.057534+00:00", "maneuver_count": 0, "owner": "N/A"}, "204": {"norad_id": "1315", "name": "SECOR 4 (EGRS 4)", "tle1": "1  1315U 65027B   26165.33826424 -.00000034  00000-0 -15240-3 0  9996", "tle2": "2  1315  90.2495  15.5137 0030319 204.9579 328.6445 12.92667693886550", "object_type": "PAYLOAD", "criticality_score": 7.0, "last_updated": "2026-06-14T17:46:05.057534+00:00", "maneuver_count": 0, "owner": "N/A"}, "230": {"norad_id": "15595", "name": "GEOSAT", "tle1": "1 15595U 85021A   26165.50933713  .00000089  00000-0  71358-4 0  9997", "tle2": "2 15595 108.0429  75.8756 0001325 287.1696  72.9301 14.39965127162388", "object_type": "PAYLOAD", "criticality_score": 7.0, "last_updated": "2026-06-14T17:46:05.057534+00:00", "maneuver_count": 0, "owner": "N/A"}, "276": {"norad_id": "14154", "name": "HILAT", "tle1": "1 14154U 83063A   26165.53819095  .00000330  00000-0  10164-3 0  9996", "tle2": "2 14154  82.0233 163.4892 0038004 299.8713 180.3870 14.38709988247201", "object_type": "PAYLOAD", "criticality_score": 7.0, "last_updated": "2026-06-14T17:46:05.057534+00:00", "maneuver_count": 0, "owner": "N/A"}, "285": {"norad_id": "22491", "name": "PEGASUS R/B", "tle1": "1 22491U 93009C   26165.52163443  .00000856  00000-0  13762-3 0  9998", "tle2": "2 22491  24.9770 106.7900 0044193  78.4170 282.1298 14.57967746769246", "object_type": "ROCKET_BODY", "criticality_score": 3.0, "last_updated": "2026-06-14T17:46:05.057534+00:00", "maneuver_count": 0, "owner": "N/A"}, "286": {"norad_id": "6235", "name": "NOAA 2 (ITOS-D)", "tle1": "1  6235U 72082A   26165.50265558 -.00000018  00000-0  18045-3 0  9992", "tle2": "2  6235 102.0074 184.0449 0004239 169.7501 315.1444 12.53214976454611", "object_type": "PAYLOAD", "criticality_score": 8.5, "last_updated": "2026-06-14T17:46:05.057534+00:00", "maneuver_count": 0, "owner": "N/A"}, "303": {"norad_id": "21688", "name": "IRS 1B", "tle1": "1 21688U 91061A   26165.48207329  .00000211  00000-0  18152-3 0  9991", "tle2": "2 21688  99.4112 173.3607 0024787  13.1263 105.2115 13.97876467668119", "object_type": "PAYLOAD", "criticality_score": 7.0, "last_updated": "2026-06-14T17:46:05.057534+00:00", "maneuver_count": 0, "owner": "N/A"}, "306": {"norad_id": "4068", "name": "ATS 5", "tle1": "1  4068U 69069A   26165.51642126 -.00000292  00000-0  00000+0 0  9998", "tle2": "2  4068   0.2526 153.4014 0005198 125.7811 318.5727  0.99497072 46304", "object_type": "PAYLOAD", "criticality_score": 7.0, "last_updated": "2026-06-14T17:46:05.057534+00:00", "maneuver_count": 0, "owner": "N/A"}, "320": {"norad_id": "11060", "name": "TIROS N", "tle1": "1 11060U 78096A   26165.31837726  .00000108  00000-0  71157-4 0  9999", "tle2": "2 11060  98.4530 186.5014 0009201 248.2723 111.7475 14.19374437678341", "object_type": "PAYLOAD", "criticality_score": 7.0, "last_updated": "2026-06-14T17:46:05.057534+00:00", "maneuver_count": 0, "owner": "N/A"}, "321": {"norad_id": "1430", "name": "TIROS 10", "tle1": "1  1430U 65051A   26165.33633215  .00000128  00000-0  52018-4 0  9992", "tle2": "2  1430  98.5036 284.6795 0056460  87.7457 273.0195 14.41630139195500", "object_type": "PAYLOAD", "criticality_score": 7.0, "last_updated": "2026-06-14T17:46:05.057534+00:00", "maneuver_count": 0, "owner": "N/A"}, "323": {"norad_id": "2411", "name": "SECOR 7 (EGRS 7)", "tle1": "1 02411U 66077B   26151.80828715 -.00000017  00000-0 -94661-2 0  9996", "tle2": "2 02411  90.3353 277.2466 0011654  75.1080 285.1061  8.59615314875976", "object_type": "PAYLOAD", "criticality_score": 7.0, "last_updated": "2026-06-14T17:46:05.057534+00:00", "maneuver_count": 0, "owner": "N/A"}, "324": {"norad_id": "3891", "name": "SECOR 13 (EGRS 13)", "tle1": "1  3891U 69037B   26165.43600941 -.00000015  00000-0  48236-4 0  9997", "tle2": "2  3891  99.6490  37.0423 0038668 257.9789 276.8074 13.42976905801387", "object_type": "PAYLOAD", "criticality_score": 7.0, "last_updated": "2026-06-14T17:46:05.057534+00:00", "maneuver_count": 0, "owner": "N/A"}, "340": {"norad_id": "20439", "name": "OSCAR 16 (PACSAT)", "tle1": "1 20439U 90005D   26165.37284552  .00000115  00000-0  57946-4 0  9990", "tle2": "2 20439  98.8522 200.9862 0009629 236.6313 134.7941 14.33935892901535", "object_type": "PAYLOAD", "criticality_score": 7.0, "last_updated": "2026-06-14T17:46:05.057534+00:00", "maneuver_count": 0, "owner": "N/A"}, "591": {"norad_id": "22034", "name": "COSMOS 2197", "tle1": "1 22034U 92042A   26165.44783910  .00000028  00000-0  93832-4 0  9993", "tle2": "2 22034  82.5940 230.6839 0011362 280.7387  89.9629 12.64251970564948", "object_type": "PAYLOAD", "criticality_score": 7.0, "last_updated": "2026-06-14T17:46:05.057534+00:00", "maneuver_count": 0, "owner": "N/A"}}}